{
  "type": "FeatureCollection",
  "features": [
    {
      "type": "Feature",
      "properties": {
        "norad_id": 66488,
        "name": "STARLINK-35515",
        "group": "last-30-days",
        "lat": -5.066457880576604,
        "lon": 135.82975803225946,
        "alt_km": 415.53867724424254,
        "timestamp": "2025-12-09T23:33:22.607795+00:00",
        "meta_object_name": "STARLINK-35515",
        "meta_object_id": "2025-263D",
        "meta_epoch": "2025-12-09T14:00:01.999872",
        "meta_mean_motion": 15.50619897,
        "meta_eccentricity": 0.00013865,
        "meta_inclination": 43.0003,
        "meta_ra_of_asc_node": 143.6186,
        "meta_arg_of_pericenter": 263.2082,
        "meta_mean_anomaly": 24.2278,
        "meta_ephemeris_type": 0,
        "meta_classification_type": "U",
        "meta_norad_cat_id": 66488,
        "meta_element_set_no": 999,
        "meta_rev_at_epoch": 512,
        "meta_bstar": -0.0020020942,
        "meta_mean_motion_dot": -0.00116236,
        "meta_mean_motion_ddot": 0,
        "tle_line1": "1 66488U 25263D   25343.58335648 -.00116236  00000+0 -20021-2 0  9996",
        "tle_line2": "2 66488  43.0003 143.6186 0001386 263.2082  24.2278 15.50619897  5128"
      },
      "geometry": {
        "type": "Point",
        "coordinates": [
          135.82975803225946,
          -5.066457880576604
        ]
      }
    },
    {
      "type": "Feature",
      "properties": {
        "norad_id": 66489,
        "name": "STARLINK-35696",
        "group": "last-30-days",
        "lat": -3.77313782657987,
        "lon": 137.22624393820843,
        "alt_km": 415.2650556423332,
        "timestamp": "2025-12-09T23:33:22.607806+00:00",
        "meta_object_name": "STARLINK-35696",
        "meta_object_id": "2025-263E",
        "meta_epoch": "2025-12-09T14:00:01.999872",
        "meta_mean_motion": 15.50572981,
        "meta_eccentricity": 0.00014693,
        "meta_inclination": 43.0005,
        "meta_ra_of_asc_node": 143.6139,
        "meta_arg_of_pericenter": 267.6759,
        "meta_mean_anomaly": 21.6792,
        "meta_ephemeris_type": 0,
        "meta_classification_type": "U",
        "meta_norad_cat_id": 66489,
        "meta_element_set_no": 999,
        "meta_rev_at_epoch": 512,
        "meta_bstar": -0.00046878876,
        "meta_mean_motion_dot": -0.0002774,
        "meta_mean_motion_ddot": 0,
        "tle_line1": "1 66489U 25263E   25343.58335648 -.00027740  00000+0 -46879-3 0  9998",
        "tle_line2": "2 66489  43.0005 143.6139 0001469 267.6759  21.6792 15.50572981  5124"
      },
      "geometry": {
        "type": "Point",
        "coordinates": [
          137.22624393820843,
          -3.77313782657987
        ]
      }
    },
    {
      "type": "Feature",
      "properties": {
        "norad_id": 66490,
        "name": "STARLINK-35693",
        "group": "last-30-days",
        "lat": -2.4676716688168856,
        "lon": 138.6292921478619,
        "alt_km": 415.2281733907639,
        "timestamp": "2025-12-09T23:33:22.607817+00:00",
        "meta_object_name": "STARLINK-35693",
        "meta_object_id": "2025-263F",
        "meta_epoch": "2025-12-09T14:00:01.999872",
        "meta_mean_motion": 15.50600479,
        "meta_eccentricity": 0.0001543,
        "meta_inclination": 43.0004,
        "meta_ra_of_asc_node": 143.6094,
        "meta_arg_of_pericenter": 264.0913,
        "meta_mean_anomaly": 27.1689,
        "meta_ephemeris_type": 0,
        "meta_classification_type": "U",
        "meta_norad_cat_id": 66490,
        "meta_element_set_no": 999,
        "meta_rev_at_epoch": 512,
        "meta_bstar": -0.0012859842,
        "meta_mean_motion_dot": -0.00075122,
        "meta_mean_motion_ddot": 0,
        "tle_line1": "1 66490U 25263F   25343.58335648 -.00075122  00000+0 -12860-2 0  9999",
        "tle_line2": "2 66490  43.0004 143.6094 0001543 264.0913  27.1689 15.50600479  5121"
      },
      "geometry": {
        "type": "Point",
        "coordinates": [
          138.6292921478619,
          -2.4676716688168856
        ]
      }
    },
    {
      "type": "Feature",
      "properties": {
        "norad_id": 66491,
        "name": "STARLINK-35663",
        "group": "last-30-days",
        "lat": 0.14718017328645644,
        "lon": 141.42789754498162,
        "alt_km": 414.97100822958237,
        "timestamp": "2025-12-09T23:33:22.607828+00:00",
        "meta_object_name": "STARLINK-35663",
        "meta_object_id": "2025-263G",
        "meta_epoch": "2025-12-09T14:00:01.999872",
        "meta_mean_motion": 15.50574636,
        "meta_eccentricity": 0.00014936,
        "meta_inclination": 43.0004,
        "meta_ra_of_asc_node": 143.5993,
        "meta_arg_of_pericenter": 265.6223,
        "meta_mean_anomaly": 29.5026,
        "meta_ephemeris_type": 0,
        "meta_classification_type": "U",
        "meta_norad_cat_id": 66491,
        "meta_element_set_no": 999,
        "meta_rev_at_epoch": 512,
        "meta_bstar": -0.00099951009,
        "meta_mean_motion_dot": -0.00058532,
        "meta_mean_motion_ddot": 0,
        "tle_line1": "1 66491U 25263G   25343.58335648 -.00058532  00000+0 -99951-3 0  9993",
        "tle_line2": "2 66491  43.0004 143.5993 0001493 265.6223  29.5026 15.50574636  5120"
      },
      "geometry": {
        "type": "Point",
        "coordinates": [
          141.42789754498162,
          0.14718017328645644
        ]
      }
    },
    {
      "type": "Feature",
      "properties": {
        "norad_id": 66492,
        "name": "STARLINK-35673",
        "group": "last-30-days",
        "lat": -2.298845787919949,
        "lon": 138.8092519418132,
        "alt_km": 425.82020371668386,
        "timestamp": "2025-12-09T23:33:22.607841+00:00",
        "meta_object_name": "STARLINK-35673",
        "meta_object_id": "2025-263H",
        "meta_epoch": "2025-12-09T14:00:01.999872",
        "meta_mean_motion": 15.48690726,
        "meta_eccentricity": 0.00015809,
        "meta_inclination": 43.0003,
        "meta_ra_of_asc_node": 143.5978,
        "meta_arg_of_pericenter": 266.5586,
        "meta_mean_anomaly": 28.9765,
        "meta_ephemeris_type": 0,
        "meta_classification_type": "U",
        "meta_norad_cat_id": 66492,
        "meta_element_set_no": 999,
        "meta_rev_at_epoch": 512,
        "meta_bstar": -0.04329521,
        "meta_mean_motion_dot": -0.02107556,
        "meta_mean_motion_ddot": 0,
        "tle_line1": "1 66492U 25263H   25343.58335648 -.02107556  00000+0 -43295-1 0  9995",
        "tle_line2": "2 66492  43.0003 143.5978 0001580 266.5586  28.9765 15.48690726  5121"
      },
      "geometry": {
        "type": "Point",
        "coordinates": [
          138.8092519418132,
          -2.298845787919949
        ]
      }
    },
    {
      "type": "Feature",
      "properties": {
        "norad_id": 66493,
        "name": "STARLINK-35597",
        "group": "last-30-days",
        "lat": 2.7568588956909994,
        "lon": 144.22149904600494,
        "alt_km": 414.7640576706881,
        "timestamp": "2025-12-09T23:33:22.607851+00:00",
        "meta_object_name": "STARLINK-35597",
        "meta_object_id": "2025-263J",
        "meta_epoch": "2025-12-09T14:00:01.999872",
        "meta_mean_motion": 15.50580353,
        "meta_eccentricity": 0.0001451,
        "meta_inclination": 43.0003,
        "meta_ra_of_asc_node": 143.5888,
        "meta_arg_of_pericenter": 261.074,
        "meta_mean_anomaly": 37.8761,
        "meta_ephemeris_type": 0,
        "meta_classification_type": "U",
        "meta_norad_cat_id": 66493,
        "meta_element_set_no": 999,
        "meta_rev_at_epoch": 512,
        "meta_bstar": -0.0011060045,
        "meta_mean_motion_dot": -0.00064695,
        "meta_mean_motion_ddot": 0,
        "tle_line1": "1 66493U 25263J   25343.58335648 -.00064695  00000+0 -11060-2 0  9996",
        "tle_line2": "2 66493  43.0003 143.5888 0001451 261.0740  37.8761 15.50580353  5123"
      },
      "geometry": {
        "type": "Point",
        "coordinates": [
          144.22149904600494,
          2.7568588956909994
        ]
      }
    },
    {
      "type": "Feature",
      "properties": {
        "norad_id": 66494,
        "name": "STARLINK-35689",
        "group": "last-30-days",
        "lat": -1.1646329960042614,
        "lon": 140.02536829436596,
        "alt_km": 415.1403964765095,
        "timestamp": "2025-12-09T23:33:22.607862+00:00",
        "meta_object_name": "STARLINK-35689",
        "meta_object_id": "2025-263K",
        "meta_epoch": "2025-12-09T14:00:01.999872",
        "meta_mean_motion": 15.50588863,
        "meta_eccentricity": 0.00014201,
        "meta_inclination": 43.0004,
        "meta_ra_of_asc_node": 143.6048,
        "meta_arg_of_pericenter": 263.8335,
        "meta_mean_anomaly": 29.3588,
        "meta_ephemeris_type": 0,
        "meta_classification_type": "U",
        "meta_norad_cat_id": 66494,
        "meta_element_set_no": 999,
        "meta_rev_at_epoch": 512,
        "meta_bstar": -0.0013337187,
        "meta_mean_motion_dot": -0.00077838,
        "meta_mean_motion_ddot": 0,
        "tle_line1": "1 66494U 25263K   25343.58335648 -.00077838  00000+0 -13337-2 0  9999",
        "tle_line2": "2 66494  43.0004 143.6048 0001420 263.8335  29.3588 15.50588863  5127"
      },
      "geometry": {
        "type": "Point",
        "coordinates": [
          140.02536829436596,
          -1.1646329960042614
        ]
      }
    }
  ]
}